start=new Date('2021-09-21T00:00:00.000Z').valueOf();
sats=[{"REV_AT_EPOCH":"6179","RCS_SIZE":"LARGE","TLE_LINE2":"2 46172  53.0578  57.7605 0001663 105.9418 254.1755 15.06398947 61798","PERIAPSIS":"546.065","SEMIMAJOR_AXIS":"6925.352","COUNTRY_CODE":"US","NORAD_CAT_ID":"46172","OBJECT_TYPE":"PAYLOAD","MEAN_ANOMALY":"254.1755","CENTER_NAME":"EARTH","MEAN_MOTION":"15.06398947","SITE":"AFETR","ELEMENT_SET_NO":"999","ARG_OF_PERICENTER":"105.9418","PERIOD":"95.592","MEAN_ELEMENT_THEORY":"SGP4","APOAPSIS":"548.368","TLE_LINE1":"1 46172U 20057BH  21263.84730136  .00000669  00000-0  63780-4 0  9999","TIME_SYSTEM":"UTC","CLASSIFICATION_TYPE":"U","DECAY_DATE":null,"RA_OF_ASC_NODE":"57.7605","REF_FRAME":"TEME","GP_ID":"185122921","OBJECT_NAME":"STARLINK-1635","BSTAR":"0.00006378000000","ECCENTRICITY":"0.00016630","FILE":"3121356","INCLINATION":"53.0578","OBJECT_ID":"2020-057BH","MEAN_MOTION_DDOT":"0.0000000000000","MEAN_MOTION_DOT":"0.00000669","EPHEMERIS_TYPE":"0","EPOCH":"2021-09-20T20:20:06.837504","LAUNCH_DATE":"2020-08-18"},{"APOAPSIS":"548.557","MEAN_ELEMENT_THEORY":"SGP4","TLE_LINE1":"1 46173U 20057BJ  21263.82701109  .00000553  00000-0  56029-4 0  9996","ARG_OF_PERICENTER":"94.4304","PERIOD":"95.592","SITE":"AFETR","ELEMENT_SET_NO":"999","MEAN_MOTION":"15.06404466","CENTER_NAME":"EARTH","OBJECT_TYPE":"PAYLOAD","MEAN_ANOMALY":"265.6909","NORAD_CAT_ID":"46173","COUNTRY_CODE":"US","SEMIMAJOR_AXIS":"6925.335","PERIAPSIS":"545.843","RCS_SIZE":"LARGE","TLE_LINE2":"2 46173  53.0549  77.8488 0001960  94.4304 265.6909 15.06404466 60257","REV_AT_EPOCH":"6025","LAUNCH_DATE":"2020-08-18","EPHEMERIS_TYPE":"0","EPOCH":"2021-09-20T19:50:53.758176","MEAN_MOTION_DDOT":"0.0000000000000","MEAN_MOTION_DOT":"0.00000553","FILE":"3121356","INCLINATION":"53.0549","OBJECT_ID":"2020-057BJ","ECCENTRICITY":"0.00019600","BSTAR":"0.00005602900000","OBJECT_NAME":"STARLINK-1640","GP_ID":"185124173","REF_FRAME":"TEME","DECAY_DATE":null,"RA_OF_ASC_NODE":"77.8488","TIME_SYSTEM":"UTC","CLASSIFICATION_TYPE":"U"},{"ARG_OF_PERICENTER":"94.6671","PERIOD":"95.593","MEAN_ELEMENT_THEORY":"SGP4","APOAPSIS":"548.430","TLE_LINE1":"1 46174U 20057BK  21263.76805253  .00000762  00000-0  70053-4 0  9990","ELEMENT_SET_NO":"999","SITE":"AFETR","CENTER_NAME":"EARTH","MEAN_MOTION":"15.06392073","NORAD_CAT_ID":"46174","OBJECT_TYPE":"PAYLOAD","MEAN_ANOMALY":"265.4515","COUNTRY_CODE":"US","SEMIMAJOR_AXIS":"6925.373","PERIAPSIS":"546.045","TLE_LINE2":"2 46174  53.0552  78.1048 0001722  94.6671 265.4515 15.06392073 60243","RCS_SIZE":"LARGE","REV_AT_EPOCH":"6024","EPHEMERIS_TYPE":"0","EPOCH":"2021-09-20T18:25:59.738592","LAUNCH_DATE":"2020-08-18","MEAN_MOTION_DDOT":"0.0000000000000","MEAN_MOTION_DOT":"0.00000762","FILE":"3121356","INCLINATION":"53.0552","OBJECT_ID":"2020-057BK","BSTAR":"0.00007005300000","ECCENTRICITY":"0.00017220","OBJECT_NAME":"STARLINK-1641","GP_ID":"185123923","REF_FRAME":"TEME","TIME_SYSTEM":"UTC","CLASSIFICATION_TYPE":"U","DECAY_DATE":null,"RA_OF_ASC_NODE":"78.1048"},{"OBJECT_NAME":"STARLINK-1734","GP_ID":"185123935","REF_FRAME":"TEME","CLASSIFICATION_TYPE":"U","TIME_SYSTEM":"UTC","RA_OF_ASC_NODE":"92.7659","DECAY_DATE":null,"EPOCH":"2021-09-20T20:18:06.662016","EPHEMERIS_TYPE":"0","LAUNCH_DATE":"2020-09-03","MEAN_MOTION_DOT":"0.00000611","MEAN_MOTION_DDOT":"0.0000000000000","OBJECT_ID":"2020-062A","INCLINATION":"53.0545","FILE":"3121356","BSTAR":"0.00005997700000","ECCENTRICITY":"0.00022000","SEMIMAJOR_AXIS":"6925.376","COUNTRY_CODE":"US","PERIAPSIS":"545.717","RCS_SIZE":"LARGE","TLE_LINE2":"2 46325  53.0545  92.7659 0002200  90.4675 269.6566 15.06391111 59740","REV_AT_EPOCH":"5974","ARG_OF_PERICENTER":"90.4675","PERIOD":"95.593","TLE_LINE1":"1 46325U 20062A   21263.84591044  .00000611  00000-0  59977-4 0  9998","APOAPSIS":"548.764","MEAN_ELEMENT_THEORY":"SGP4","SITE":"AFETR","ELEMENT_SET_NO":"999","MEAN_MOTION":"15.06391111","CENTER_NAME":"EARTH","NORAD_CAT_ID":"46325","MEAN_ANOMALY":"269.6566","OBJECT_TYPE":"PAYLOAD"},{"LAUNCH_DATE":"2020-09-03","EPOCH":"2021-09-20T21:17:05.710560","EPHEMERIS_TYPE":"0","MEAN_MOTION_DOT":"-0.00000508","MEAN_MOTION_DDOT":"0.0000000000000","INCLINATION":"53.0530","OBJECT_ID":"2020-062B","FILE":"3121356","ECCENTRICITY":"0.00023300","BSTAR":"-0.00001516400000","OBJECT_NAME":"STARLINK-1654","GP_ID":"185122683","REF_FRAME":"TEME","RA_OF_ASC_NODE":"137.5819","DECAY_DATE":null,"CLASSIFICATION_TYPE":"U","TIME_SYSTEM":"UTC","TLE_LINE1":"1 46326U 20062B   21263.88687165 -.00000508  00000-0 -15164-4 0  9990","APOAPSIS":"548.827","MEAN_ELEMENT_THEORY":"SGP4","PERIOD":"95.592","ARG_OF_PERICENTER":"45.3112","SITE":"AFETR","ELEMENT_SET_NO":"999","CENTER_NAME":"EARTH","MEAN_MOTION":"15.06399905","MEAN_ANOMALY":"314.8066","OBJECT_TYPE":"PAYLOAD","NORAD_CAT_ID":"46326","SEMIMAJOR_AXIS":"6925.349","COUNTRY_CODE":"US","PERIAPSIS":"545.600","TLE_LINE2":"2 46326  53.0530 137.5819 0002330  45.3112 314.8066 15.06399905 58511","RCS_SIZE":"LARGE","REV_AT_EPOCH":"5851"},{"OBJECT_TYPE":"PAYLOAD","MEAN_ANOMALY":"289.5096","NORAD_CAT_ID":"46327","CENTER_NAME":"EARTH","MEAN_MOTION":"15.06385714","SITE":"AFETR","ELEMENT_SET_NO":"999","APOAPSIS":"548.877","MEAN_ELEMENT_THEORY":"SGP4","TLE_LINE1":"1 46327U 20062C   21263.86572783 -.00001163  00000-0 -59171-4 0  9992","PERIOD":"95.593","ARG_OF_PERICENTER":"70.6146","REV_AT_EPOCH":"5850","RCS_SIZE":"LARGE","TLE_LINE2":"2 46327  53.0545 137.6797 0002339  70.6146 289.5096 15.06385714 58504","PERIAPSIS":"545.637","COUNTRY_CODE":"US","SEMIMAJOR_AXIS":"6925.392","ECCENTRICITY":"0.00023390","BSTAR":"-0.00005917100000","FILE":"3121356","OBJECT_ID":"2020-062C","INCLINATION":"53.0545","MEAN_MOTION_DDOT":"0.0000000000000","MEAN_MOTION_DOT":"-0.00001163","LAUNCH_DATE":"2020-09-03","EPHEMERIS_TYPE":"0","EPOCH":"2021-09-20T20:46:38.884512","DECAY_DATE":null,"RA_OF_ASC_NODE":"137.6797","TIME_SYSTEM":"UTC","CLASSIFICATION_TYPE":"U","REF_FRAME":"TEME","GP_ID":"185123434","OBJECT_NAME":"STARLINK-1673"},{"OBJECT_TYPE":"PAYLOAD","MEAN_ANOMALY":"278.2161","NORAD_CAT_ID":"46328","CENTER_NAME":"EARTH","MEAN_MOTION":"15.06387268","ELEMENT_SET_NO":"999","SITE":"AFETR","MEAN_ELEMENT_THEORY":"SGP4","APOAPSIS":"548.798","TLE_LINE1":"1 46328U 20062D   21263.84546132 -.00001365  00000-0 -72764-4 0  9997","ARG_OF_PERICENTER":"81.9081","PERIOD":"95.593","REV_AT_EPOCH":"5878","RCS_SIZE":"LARGE","TLE_LINE2":"2 46328  53.0538 117.7644 0002232  81.9081 278.2161 15.06387268 58786","PERIAPSIS":"545.707","SEMIMAJOR_AXIS":"6925.388","COUNTRY_CODE":"US","ECCENTRICITY":"0.00022320","BSTAR":"-0.00007276400000","FILE":"3121356","INCLINATION":"53.0538","OBJECT_ID":"2020-062D","MEAN_MOTION_DDOT":"0.0000000000000","MEAN_MOTION_DOT":"-0.00001365","LAUNCH_DATE":"2020-09-03","EPHEMERIS_TYPE":"0","EPOCH":"2021-09-20T20:17:27.858048","DECAY_DATE":null,"RA_OF_ASC_NODE":"117.7644","TIME_SYSTEM":"UTC","CLASSIFICATION_TYPE":"U","REF_FRAME":"TEME","GP_ID":"185123685","OBJECT_NAME":"STARLINK-1686"},{"SEMIMAJOR_AXIS":"6925.378","COUNTRY_CODE":"US","PERIAPSIS":"545.719","TLE_LINE2":"2 46329  53.0543 117.6097 0002201  72.7779 287.3451 15.06390386 58780","RCS_SIZE":"LARGE","REV_AT_EPOCH":"5878","APOAPSIS":"548.767","MEAN_ELEMENT_THEORY":"SGP4","TLE_LINE1":"1 46329U 20062E   21263.87862877 -.00001427  00000-0 -76911-4 0  9995","ARG_OF_PERICENTER":"72.7779","PERIOD":"95.593","SITE":"AFETR","ELEMENT_SET_NO":"999","CENTER_NAME":"EARTH","MEAN_MOTION":"15.06390386","OBJECT_TYPE":"PAYLOAD","MEAN_ANOMALY":"287.3451","NORAD_CAT_ID":"46329","OBJECT_NAME":"STARLINK-1695","GP_ID":"185124436","REF_FRAME":"TEME","DECAY_DATE":null,"RA_OF_ASC_NODE":"117.6097","TIME_SYSTEM":"UTC","CLASSIFICATION_TYPE":"U","LAUNCH_DATE":"2020-09-03","EPHEMERIS_TYPE":"0","EPOCH":"2021-09-20T21:05:13.525728","MEAN_MOTION_DDOT":"0.0000000000000","MEAN_MOTION_DOT":"-0.00001427","FILE":"3121356","OBJECT_ID":"2020-062E","INCLINATION":"53.0543","ECCENTRICITY":"0.00022010","BSTAR":"-0.00007691100000"},{"REV_AT_EPOCH":"5879","TLE_LINE2":"2 46330  53.0533 117.6686 0002195  81.8405 278.2832 15.06395229 58798","RCS_SIZE":"LARGE","PERIAPSIS":"545.708","COUNTRY_CODE":"US","SEMIMAJOR_AXIS":"6925.363","NORAD_CAT_ID":"46330","OBJECT_TYPE":"PAYLOAD","MEAN_ANOMALY":"278.2832","CENTER_NAME":"EARTH","MEAN_MOTION":"15.06395229","SITE":"AFETR","ELEMENT_SET_NO":"999","PERIOD":"95.592","ARG_OF_PERICENTER":"81.8405","MEAN_ELEMENT_THEORY":"SGP4","APOAPSIS":"548.748","TLE_LINE1":"1 46330U 20062F   21263.86756122 -.00000708  00000-0 -28609-4 0  9993","TIME_SYSTEM":"UTC","CLASSIFICATION_TYPE":"U","DECAY_DATE":null,"RA_OF_ASC_NODE":"117.6686","REF_FRAME":"TEME","GP_ID":"185123184","OBJECT_NAME":"STARLINK-1710","BSTAR":"-0.00002860900000","ECCENTRICITY":"0.00021950","FILE":"3121356","OBJECT_ID":"2020-062F","INCLINATION":"53.0533","MEAN_MOTION_DDOT":"0.0000000000000","MEAN_MOTION_DOT":"-0.00000708","EPHEMERIS_TYPE":"0","EPOCH":"2021-09-20T20:49:17.289408","LAUNCH_DATE":"2020-09-03"},{"EPOCH":"2021-09-20T21:39:43.094304","EPHEMERIS_TYPE":"0","LAUNCH_DATE":"2020-09-03","MEAN_MOTION_DOT":"-0.00001170","MEAN_MOTION_DDOT":"0.0000000000000","INCLINATION":"53.0546","OBJECT_ID":"2020-062G","FILE":"3121356","BSTAR":"-0.00005966800000","ECCENTRICITY":"0.00021480","OBJECT_NAME":"STARLINK-1719","GP_ID":"185122934","REF_FRAME":"TEME","CLASSIFICATION_TYPE":"U","TIME_SYSTEM":"UTC","RA_OF_ASC_NODE":"137.5150","DECAY_DATE":null,"ARG_OF_PERICENTER":"71.2209","PERIOD":"95.593","TLE_LINE1":"1 46331U 20062G   21263.90258211 -.00001170  00000-0 -59668-4 0  9998","APOAPSIS":"548.733","MEAN_ELEMENT_THEORY":"SGP4","SITE":"AFETR","ELEMENT_SET_NO":"999","MEAN_MOTION":"15.06389708","CENTER_NAME":"EARTH","NORAD_CAT_ID":"46331","MEAN_ANOMALY":"288.9013","OBJECT_TYPE":"PAYLOAD","SEMIMAJOR_AXIS":"6925.380","COUNTRY_CODE":"US","PERIAPSIS":"545.758","TLE_LINE2":"2 46331  53.0546 137.5150 0002148  71.2209 288.9013 15.06389708 58517","RCS_SIZE":"LARGE","REV_AT_EPOCH":"5851"}];
